STARLINK-1474           
1 45738U 20038J   23001.19303994  .00000785  00000+0  71586-4 0  9994
2 45738  53.0548  59.7704 0002131  33.9746 326.1379 15.06402241141940
STARLINK-1475           
1 45739U 20038K   22365.74241714  .00004081  00000+0  29269-3 0  9992
2 45739  53.0545  21.7770 0002736  34.5767 325.5399 15.06408594141314
STARLINK-1479           
1 45740U 20038L   22365.86868563  .00002091  00000+0  15924-3 0  9996
2 45740  53.0530  61.2180 0001944  47.2111 312.9041 15.06393057141892
STARLINK-1480           
1 45741U 20038M   23001.17093196  .00000158  00000+0  29531-4 0  9993
2 45741  53.0525  59.8526 0001629  67.1537 292.9624 15.06410850141948
STARLINK-1481           
1 45742U 20038N   23001.16356542 -.00000470  00000+0 -12643-4 0  9995
2 45742  53.0554  59.8900 0001430  61.7184 298.3949 15.06388737141932
STARLINK-1483           
1 45743U 20038P   22365.58390945  .00005470  00000+0  38575-3 0  9993
2 45743  53.0548  62.4286 0002420  36.8931 323.2224 15.06411410140732
STARLINK-1500           
1 45744U 20038Q   23001.15250492  .00001275  00000+0  10450-3 0  9998
2 45744  53.0536  59.9472 0002021  43.8302 316.2847 15.06400187141749
STARLINK-1503           
1 45745U 20038R   23001.14145332  .00002434  00000+0  18224-3 0  9999
2 45745  53.0575  60.0030 0002395  46.9953 313.1236 15.06400133141745
STARLINK-1504           
1 45746U 20038S   23001.15618820  .00002950  00000+0  21687-3 0  9998
2 45746  53.0531  59.9268 0002257  43.8282 316.2885 15.06401392141748
STARLINK-1506           
1 45747U 20038T   23001.15987046 -.00006077  00000+0 -38946-3 0  9990
2 45747  53.0537  59.9125 0001854  45.8345 314.2796 15.06397090141749
STARLINK-1507           
1 45748U 20038U   23001.14787599  .00002668  00000+0  19795-3 0  9992
2 45748  53.0543  59.9512 0002218  54.0968 306.0227 15.06399277141753
STARLINK-1391           
1 45750U 20038W   23001.11012713  .00001888  00000+0  14564-3 0  9993
2 45750  53.0549  40.1364 0002439  34.6368 325.4779 15.06406019142214
STARLINK-1464           
1 45751U 20038X   23001.10642424  .00003045  00000+0  22317-3 0  9993
2 45751  53.0546  40.1596 0002835  36.8263 323.2920 15.06418190142214
STARLINK-1476           
1 45753U 20038Z   23001.11749094  .00000092  00000+0  25119-4 0  9990
2 45753  53.0570  40.0890 0002644  37.2909 322.8263 15.06397261142219
STARLINK-1477           
1 45754U 20038AA  23001.12117089 -.00000279  00000+0  20359-6 0  9996
2 45754  53.0552  40.0831 0002360  39.3255 320.7905 15.06392983142066
STARLINK-1478           
1 45755U 20038AB  23001.13961491  .00000719  00000+0  67225-4 0  9991
2 45755  53.0575  39.9964 0002438  41.6850 318.4324 15.06394025142214
STARLINK-1484           
1 45756U 20038AC  22365.80323601  .00002889  00000+0  21271-3 0  9993
2 45756  53.0537  41.5051 0002316  39.7707 320.3452 15.06408056141047
STARLINK-1486           
1 45757U 20038AD  23001.08800533  .00003154  00000+0  23052-3 0  9991
2 45757  53.0566  40.2457 0002741  40.0041 320.1149 15.06406194142205
STARLINK-1487           
1 45758U 20038AE  22365.81448380  .00017990  00000+0  12137-2 0  9997
2 45758  53.0554  41.4545 0002802  50.6188 309.5049 15.06698924141046
STARLINK-1493           
1 45759U 20038AF  22365.79680837  .00002722  00000+0  20152-3 0  9994
2 45759  53.0547  41.5447 0001894  39.4671 320.6456 15.06405942141045
STARLINK-1494           
1 45760U 20038AG  23001.13223417  .00000416  00000+0  46847-4 0  9997
2 45760  53.0563  40.0239 0002610  18.0073 342.1008 15.06402566142024
STARLINK-1499           
1 45762U 20038AJ  23001.10323732  .00026399  00000+0  14675-2 0  9997
2 45762  53.0565  34.6296 0000484   8.4406 351.6595 15.13532949142102
STARLINK-1502           
1 45764U 20038AL  23001.09536600 -.00000425  00000+0 -96356-5 0  9990
2 45764  53.0516  40.2056 0001831  74.8794 285.2398 15.06409933142023
STARLINK-1509           
1 45766U 20038AN  22365.61988405  .00004808  00000+0  34134-3 0  9997
2 45766  53.0555  42.3255 0002991  27.6756 332.4392 15.06411708141014
STARLINK-1511           
1 45767U 20038AP  22365.81155750  .00005717  00000+0  40227-3 0  9999
2 45767  53.0543  41.4721 0002539  37.8427 322.2740 15.06411666141046
STARLINK-1521           
1 45768U 20038AQ  23001.12486349  .00000854  00000+0  76226-4 0  9999
2 45768  53.0568  40.0537 0002063  38.5350 321.5786 15.06398514142026
STARLINK-1459           
1 45769U 20038AR  23001.14881910 -.00000484  00000+0 -13599-4 0  9990
2 45769  53.0541  59.9611 0002139  44.8810 315.2351 15.06412233141937
STARLINK-1462           
1 45770U 20038AS  23001.08520750  .00003424  00000+0  24859-3 0  9992
2 45770  53.0536  20.2431 0002087  49.7140 310.4031 15.06405699142487
STARLINK-1463           
1 45771U 20038AT  23001.07878463 -.00001045  00000+0 -51218-4 0  9998
2 45771  53.0550  20.2751 0001867  42.9655 317.1479 15.06404167142489
STARLINK-1470           
1 45772U 20038AU  23001.06772229  .00003112  00000+0  22761-3 0  9996
2 45772  53.0527  20.3313 0002171  48.9745 311.1432 15.06416147142488
STARLINK-1482           
1 45773U 20038AV  23001.06035056  .00000333  00000+0  41253-4 0  9997
2 45773  53.0537  20.3558 0002493  42.4037 317.7144 15.06404531142331
STARLINK-1485           
1 45774U 20038AW  22365.76548230  .00004747  00000+0  33730-3 0  9993
2 45774  53.0529  21.6870 0001508  76.5372 283.5785 15.06405032141326
STARLINK-1488           
1 45775U 20038AX  22365.77420492  .00020900  00000+0  13275-2 0  9994
2 45775  53.0534  21.0053 0000683 354.8921   5.2062 15.08832453141347
STARLINK-1489           
1 45776U 20038AY  22365.77653853  .00003086  00000+0  22596-3 0  9997
2 45776  53.0556  21.6364 0002531  38.0895 322.0272 15.06410111141331
STARLINK-1490           
1 45777U 20038AZ  22365.77286124  .00008004  00000+0  55539-3 0  9999
2 45777  53.0539  21.6465 0002755  39.4828 320.6361 15.06415374141333
STARLINK-1491           
1 45778U 20038BA  23001.08615656 -.00003043  00000+0 -18548-3 0  9997
2 45778  53.0559  20.2359 0001928  45.2919 314.8226 15.06397493142483
STARLINK-1492           
1 45779U 20038BB  23001.12708055  .00027446  00000+0  15997-2 0  9994
2 45779  53.0565  17.7602 0001701  25.0849 335.0225 15.11809617142521
STARLINK-1496           
1 45780U 20038BC  23001.09353988  .00001635  00000+0  12867-3 0  9999
2 45780  53.0572  20.1934 0001537  49.2396 310.8726 15.06392665142294
STARLINK-1497           
1 45781U 20038BD  22365.78759287  .00002169  00000+0  16443-3 0  9997
2 45781  53.0550  21.5882 0002365  50.4822 309.6375 15.06404671141326
STARLINK-1498           
1 45782U 20038BE  22365.77809655  .00024307  00000+0  14219-2 0  9998
2 45782  53.0542  18.8231 0001443  39.3212 320.7884 15.11744170141371
STARLINK-1505           
1 45783U 20038BF  22365.78391930  .00009888  00000+0  68184-3 0  9990
2 45783  53.0551  21.6008 0002889  29.8600 330.2554 15.06395419141334
STARLINK-1510           
1 45784U 20038BG  22365.75809990  .00002153  00000+0  16333-3 0  9995
2 45784  53.0559  21.7098 0001932  63.3909 296.7278 15.06414912141324
STARLINK-1512           
1 45785U 20038BH  23001.07141343  .00001149  00000+0  96007-4 0  9991
2 45785  53.0540  20.3186 0002715  39.0461 321.0723 15.06407473142299
STARLINK-1513           
1 45786U 20038BJ  22365.79127423  .00011001  00000+0  75563-3 0  9997
2 45786  53.0551  21.5567 0002279  43.2000 316.9167 15.06431665141338
STARLINK-1517           
1 45787U 20038BK  23001.06404190  .00000799  00000+0  72575-4 0  9998
2 45787  53.0542  20.3396 0002273  41.8321 318.2842 15.06401031142295
SKYSAT-C14              
1 45788U 20038BL  22365.94051416  .00034212  00000+0  48276-3 0  9994
2 45788  52.9902  83.1674 0008338 298.9350  61.0823 15.56251657145483
SKYSAT-C16              
1 45789U 20038BM  22365.82905125  .00036265  00000+0  50695-3 0  9995
2 45789  52.9914  83.2614 0012645 307.8833  52.1033 15.56424804145462
SKYSAT-C15              
1 45790U 20038BN  22365.60883599  .00034602  00000+0  49010-3 0  9995
2 45790  52.9887  84.6074 0008582 299.8863  60.1294 15.56141926145421
GAOFEN 9-03             
1 45794U 20039A   23001.28427486 -.00000071  00000+0  00000+0 0  9997
2 45794  97.4081 122.0889 0013475 258.0916 132.3516 15.23294160141292
ZHEDA PIXING 3A         
1 45795U 20039B   23001.13588169  .00010347  00000+0  35390-3 0  9998
2 45795  97.4124 124.9876 0010932 231.0869 253.8104 15.30393671141456
HEAD-5                  
1 45796U 20039C   23001.14436520  .00022547  00000+0  64312-3 0  9994
2 45796  97.4087 126.8940 0009921 230.2186 253.5999 15.36016700141592
BEIDOU-3 G3             
1 45807U 20040A   22365.74596447 -.00000345  00000+0  00000+0 0  9995
2 45807   1.0108 312.0143 0008704 340.7426 186.4900  1.00269519  9409
NAVSTAR 79 (USA 304)    
1 45854U 20041A   22365.33243718 -.00000077  00000+0  00000+0 0  9995
2 45854  55.6771  78.4990 0029587 183.9742 174.4358  2.00567275 18680
GAOFEN DUOMO (GFDM)     
1 45856U 20042A   23001.19179319  .00000935  00000+0  14027-3 0  9995
2 45856  97.9272  78.8263 0013868 203.4365 156.6234 14.76823321134607
BY70-2                  
1 45857U 20042B   23001.16750863  .00010998  00000+0  13589-2 0  9993
2 45857  97.9416  81.3576 0010048 187.8432 172.2726 14.82946528134726
SHIYAN 6 02 (SY-6 02)   
1 45859U 20043A   22365.90690747  .00000360  00000+0  78370-4 0  9997
2 45859  98.1999  10.3023 0132385 207.1952 152.2273 14.58924343132534
APSTAR 6D               
1 45863U 20045A   22365.40535543 -.00000311  00000+0  00000+0 0  9998
2 45863   0.0449  88.8694 0000238 292.8787 358.0009  1.00270048  9189
KOREASAT 116            
1 45920U 20048A   22365.74709762 -.00000354  00000+0  00000+0 0  9995
2 45920   0.0147 316.9782 0001253 304.3451 223.9465  1.00274389  8970
ZINYUAN-3               
1 45939U 20051A   23001.15787097  .00005374  00000+0  24324-3 0  9994
2 45939  97.4170  82.2326 0010654  78.6977   4.7321 15.21263679135326
